[{"OBJECT_NAME":"QIANFAN-69","OBJECT_ID":"2025-016Q","EPOCH":"2026-03-04T02:15:14.351904","MEAN_MOTION":13.51005246,"ECCENTRICITY":0.0017925,"INCLINATION":88.9667,"RA_OF_ASC_NODE":94.5323,"ARG_OF_PERICENTER":108.5546,"MEAN_ANOMALY":251.7555,"EPHEMERIS_TYPE":0,"CLASSIFICATION_TYPE":"U","NORAD_CAT_ID":62799,"ELEMENT_SET_NO":999,"REV_AT_EPOCH":5826,"BSTAR":0.00010276,"MEAN_MOTION_DOT":7.9e-7,"MEAN_MOTION_DDOT":0},{"OBJECT_NAME":"QIANFAN-70","OBJECT_ID":"2025-016R","EPOCH":"2026-03-04T02:38:52.084320","MEAN_MOTION":13.50996997,"ECCENTRICITY":0.0017563,"INCLINATION":88.9689,"RA_OF_ASC_NODE":94.6863,"ARG_OF_PERICENTER":100.0348,"MEAN_ANOMALY":260.2786,"EPHEMERIS_TYPE":0,"CLASSIFICATION_TYPE":"U","NORAD_CAT_ID":62800,"ELEMENT_SET_NO":999,"REV_AT_EPOCH":5822,"BSTAR":7.6821e-5,"MEAN_MOTION_DOT":6.2e-7,"MEAN_MOTION_DDOT":0},{"OBJECT_NAME":"QIANFAN-71","OBJECT_ID":"2025-016S","EPOCH":"2026-03-04T02:32:51.653760","MEAN_MOTION":13.50996533,"ECCENTRICITY":0.0017807,"INCLINATION":88.9683,"RA_OF_ASC_NODE":94.6613,"ARG_OF_PERICENTER":111.6516,"MEAN_ANOMALY":248.6534,"EPHEMERIS_TYPE":0,"CLASSIFICATION_TYPE":"U","NORAD_CAT_ID":62801,"ELEMENT_SET_NO":999,"REV_AT_EPOCH":5822,"BSTAR":9.0221e-5,"MEAN_MOTION_DOT":7.1e-7,"MEAN_MOTION_DDOT":0},{"OBJECT_NAME":"QIANFAN-72","OBJECT_ID":"2025-016T","EPOCH":"2026-03-04T02:56:34.429344","MEAN_MOTION":13.5099622,"ECCENTRICITY":0.0020994,"INCLINATION":88.9673,"RA_OF_ASC_NODE":94.665,"ARG_OF_PERICENTER":118.4401,"MEAN_ANOMALY":241.8869,"EPHEMERIS_TYPE":0,"CLASSIFICATION_TYPE":"U","NORAD_CAT_ID":62802,"ELEMENT_SET_NO":999,"REV_AT_EPOCH":5821,"BSTAR":7.8844e-5,"MEAN_MOTION_DOT":6.3e-7,"MEAN_MOTION_DDOT":0},{"OBJECT_NAME":"QIANFAN-73","OBJECT_ID":"2025-046A","EPOCH":"2026-03-04T03:35:14.958816","MEAN_MOTION":13.50997968,"ECCENTRICITY":0.0013142,"INCLINATION":88.9763,"RA_OF_ASC_NODE":311.6156,"ARG_OF_PERICENTER":247.8389,"MEAN_ANOMALY":112.1367,"EPHEMERIS_TYPE":0,"CLASSIFICATION_TYPE":"U","NORAD_CAT_ID":63159,"ELEMENT_SET_NO":999,"REV_AT_EPOCH":5840,"BSTAR":0.0002859,"MEAN_MOTION_DOT":1.97e-6,"MEAN_MOTION_DDOT":0},{"OBJECT_NAME":"QIANFAN-74","OBJECT_ID":"2025-046B","EPOCH":"2026-03-04T03:11:38.091264","MEAN_MOTION":13.50997774,"ECCENTRICITY":0.0001894,"INCLINATION":88.9763,"RA_OF_ASC_NODE":311.5061,"ARG_OF_PERICENTER":77.9369,"MEAN_ANOMALY":282.1994,"EPHEMERIS_TYPE":0,"CLASSIFICATION_TYPE":"U","NORAD_CAT_ID":63160,"ELEMENT_SET_NO":999,"REV_AT_EPOCH":5846,"BSTAR":0.00031856,"MEAN_MOTION_DOT":2.18e-6,"MEAN_MOTION_DDOT":0},{"OBJECT_NAME":"QIANFAN-75","OBJECT_ID":"2025-046C","EPOCH":"2026-03-04T02:53:06.843840","MEAN_MOTION":13.51001528,"ECCENTRICITY":0.0014324,"INCLINATION":88.9765,"RA_OF_ASC_NODE":311.7423,"ARG_OF_PERICENTER":251.6505,"MEAN_ANOMALY":108.3088,"EPHEMERIS_TYPE":0,"CLASSIFICATION_TYPE":"U","NORAD_CAT_ID":63161,"ELEMENT_SET_NO":999,"REV_AT_EPOCH":5833,"BSTAR":0.00030767,"MEAN_MOTION_DOT":2.11e-6,"MEAN_MOTION_DDOT":0},{"OBJECT_NAME":"QIANFAN-76","OBJECT_ID":"2025-046D","EPOCH":"2026-03-04T02:47:50.743392","MEAN_MOTION":13.51014038,"ECCENTRICITY":0.0011875,"INCLINATION":88.9764,"RA_OF_ASC_NODE":311.7226,"ARG_OF_PERICENTER":252.3137,"MEAN_ANOMALY":107.6718,"EPHEMERIS_TYPE":0,"CLASSIFICATION_TYPE":"U","NORAD_CAT_ID":63162,"ELEMENT_SET_NO":999,"REV_AT_EPOCH":5834,"BSTAR":0.00035105,"MEAN_MOTION_DOT":2.39e-6,"MEAN_MOTION_DDOT":0},{"OBJECT_NAME":"QIANFAN-77","OBJECT_ID":"2025-046E","EPOCH":"2026-03-04T02:29:38.215392","MEAN_MOTION":13.96173494,"ECCENTRICITY":0.001431,"INCLINATION":88.976,"RA_OF_ASC_NODE":309.0624,"ARG_OF_PERICENTER":179.304,"MEAN_ANOMALY":180.8159,"EPHEMERIS_TYPE":0,"CLASSIFICATION_TYPE":"U","NORAD_CAT_ID":63163,"ELEMENT_SET_NO":999,"REV_AT_EPOCH":5980,"BSTAR":0.0003292,"MEAN_MOTION_DOT":4.66e-6,"MEAN_MOTION_DDOT":0},{"OBJECT_NAME":"QIANFAN-78","OBJECT_ID":"2025-046F","EPOCH":"2026-03-04T03:47:06.374688","MEAN_MOTION":13.50998055,"ECCENTRICITY":0.0013199,"INCLINATION":88.9763,"RA_OF_ASC_NODE":311.5816,"ARG_OF_PERICENTER":254.9445,"MEAN_ANOMALY":105.0246,"EPHEMERIS_TYPE":0,"CLASSIFICATION_TYPE":"U","NORAD_CAT_ID":63164,"ELEMENT_SET_NO":999,"REV_AT_EPOCH":5842,"BSTAR":0.00033698,"MEAN_MOTION_DOT":2.3e-6,"MEAN_MOTION_DDOT":0},{"OBJECT_NAME":"QIANFAN-79","OBJECT_ID":"2025-046G","EPOCH":"2026-03-04T02:42:08.900928","MEAN_MOTION":13.51008196,"ECCENTRICITY":0.0013056,"INCLINATION":88.9767,"RA_OF_ASC_NODE":311.697,"ARG_OF_PERICENTER":253.3163,"MEAN_ANOMALY":106.6555,"EPHEMERIS_TYPE":0,"CLASSIFICATION_TYPE":"U","NORAD_CAT_ID":63165,"ELEMENT_SET_NO":999,"REV_AT_EPOCH":5836,"BSTAR":0.00030523,"MEAN_MOTION_DOT":2.09e-6,"MEAN_MOTION_DDOT":0},{"OBJECT_NAME":"QIANFAN-80","OBJECT_ID":"2025-046H","EPOCH":"2026-03-04T03:05:36.023424","MEAN_MOTION":13.50997869,"ECCENTRICITY":0.0011889,"INCLINATION":88.9764,"RA_OF_ASC_NODE":311.4,"ARG_OF_PERICENTER":258.0508,"MEAN_ANOMALY":101.931,"EPHEMERIS_TYPE":0,"CLASSIFICATION_TYPE":"U","NORAD_CAT_ID":63166,"ELEMENT_SET_NO":999,"REV_AT_EPOCH":5852,"BSTAR":0.00031212,"MEAN_MOTION_DOT":2.13e-6,"MEAN_MOTION_DDOT":0},{"OBJECT_NAME":"QIANFAN-81","OBJECT_ID":"2025-046J","EPOCH":"2026-03-04T02:34:07.067136","MEAN_MOTION":13.50983758,"ECCENTRICITY":0.001295,"INCLINATION":88.9764,"RA_OF_ASC_NODE":311.4701,"ARG_OF_PERICENTER":245.6811,"MEAN_ANOMALY":114.2988,"EPHEMERIS_TYPE":0,"CLASSIFICATION_TYPE":"U","NORAD_CAT_ID":63167,"ELEMENT_SET_NO":999,"REV_AT_EPOCH":5847,"BSTAR":0.0003102,"MEAN_MOTION_DOT":2.12e-6,"MEAN_MOTION_DDOT":0},{"OBJECT_NAME":"QIANFAN-82","OBJECT_ID":"2025-046K","EPOCH":"2026-03-04T03:23:26.324160","MEAN_MOTION":13.50999166,"ECCENTRICITY":0.0011014,"INCLINATION":88.9764,"RA_OF_ASC_NODE":311.5106,"ARG_OF_PERICENTER":253.6024,"MEAN_ANOMALY":106.3917,"EPHEMERIS_TYPE":0,"CLASSIFICATION_TYPE":"U","NORAD_CAT_ID":63168,"ELEMENT_SET_NO":999,"REV_AT_EPOCH":5846,"BSTAR":0.00028677,"MEAN_MOTION_DOT":1.97e-6,"MEAN_MOTION_DDOT":0},{"OBJECT_NAME":"QIANFAN-83","OBJECT_ID":"2025-046L","EPOCH":"2026-03-04T02:22:24.536640","MEAN_MOTION":13.62020174,"ECCENTRICITY":0.0012407,"INCLINATION":88.9764,"RA_OF_ASC_NODE":311.1315,"ARG_OF_PERICENTER":231.4662,"MEAN_ANOMALY":128.5383,"EPHEMERIS_TYPE":0,"CLASSIFICATION_TYPE":"U","NORAD_CAT_ID":63169,"ELEMENT_SET_NO":999,"REV_AT_EPOCH":5867,"BSTAR":0.00034546,"MEAN_MOTION_DOT":2.78e-6,"MEAN_MOTION_DDOT":0},{"OBJECT_NAME":"QIANFAN-84","OBJECT_ID":"2025-046M","EPOCH":"2026-03-04T04:03:27.057024","MEAN_MOTION":13.50961038,"ECCENTRICITY":0.0014024,"INCLINATION":88.9761,"RA_OF_ASC_NODE":311.6398,"ARG_OF_PERICENTER":249.7219,"MEAN_ANOMALY":110.2425,"EPHEMERIS_TYPE":0,"CLASSIFICATION_TYPE":"U","NORAD_CAT_ID":63170,"ELEMENT_SET_NO":999,"REV_AT_EPOCH":5839,"BSTAR":-0.00014577,"MEAN_MOTION_DOT":-8.2e-7,"MEAN_MOTION_DDOT":0},{"OBJECT_NAME":"QIANFAN-85","OBJECT_ID":"2025-046N","EPOCH":"2026-03-04T03:58:57.895968","MEAN_MOTION":13.51001939,"ECCENTRICITY":0.0011432,"INCLINATION":88.9763,"RA_OF_ASC_NODE":311.5119,"ARG_OF_PERICENTER":252.2474,"MEAN_ANOMALY":107.7429,"EPHEMERIS_TYPE":0,"CLASSIFICATION_TYPE":"U","NORAD_CAT_ID":63171,"ELEMENT_SET_NO":999,"REV_AT_EPOCH":5846,"BSTAR":0.00031476,"MEAN_MOTION_DOT":2.15e-6,"MEAN_MOTION_DDOT":0}]
