QIANFAN-69              
1 62799U 25016Q   26063.09391611  .00000079  00000+0  10276-3 0  9998
2 62799  88.9667  94.5323 0017925 108.5546 251.7555 13.51005246 58266
QIANFAN-70              
1 62800U 25016R   26063.11032505  .00000062  00000+0  76821-4 0  9999
2 62800  88.9689  94.6863 0017563 100.0348 260.2786 13.50996997 58226
QIANFAN-71              
1 62801U 25016S   26063.10615340  .00000071  00000+0  90221-4 0  9993
2 62801  88.9683  94.6613 0017807 111.6516 248.6534 13.50996533 58227
QIANFAN-72              
1 62802U 25016T   26063.12262071  .00000063  00000+0  78844-4 0  9993
2 62802  88.9673  94.6650 0020994 118.4401 241.8869 13.50996220 58215
QIANFAN-73              
1 63159U 25046A   26063.14947869  .00000197  00000+0  28590-3 0  9999
2 63159  88.9763 311.6156 0013142 247.8389 112.1367 13.50997968 58407
QIANFAN-74              
1 63160U 25046B   26063.13307976  .00000218  00000+0  31856-3 0  9992
2 63160  88.9763 311.5061 0001894  77.9369 282.1994 13.50997774 58469
QIANFAN-75              
1 63161U 25046C   26063.12021810  .00000211  00000+0  30767-3 0  9995
2 63161  88.9765 311.7423 0014324 251.6505 108.3088 13.51001528 58334
QIANFAN-76              
1 63162U 25046D   26063.11655953  .00000239  00000+0  35105-3 0  9997
2 63162  88.9764 311.7226 0011875 252.3137 107.6718 13.51014038 58345
QIANFAN-77              
1 63163U 25046E   26063.10391453  .00000466  00000+0  32920-3 0  9993
2 63163  88.9760 309.0624 0014310 179.3040 180.8159 13.96173494 59807
QIANFAN-78              
1 63164U 25046F   26063.15771267  .00000230  00000+0  33698-3 0  9996
2 63164  88.9763 311.5816 0013199 254.9445 105.0246 13.50998055 58426
QIANFAN-79              
1 63165U 25046G   26063.11260302  .00000209  00000+0  30523-3 0  9996
2 63165  88.9767 311.6970 0013056 253.3163 106.6555 13.51008196 58367
QIANFAN-80              
1 63166U 25046H   26063.12888916  .00000213  00000+0  31212-3 0  9996
2 63166  88.9764 311.4000 0011889 258.0508 101.9310 13.50997869 58522
QIANFAN-81              
1 63167U 25046J   26063.10702624  .00000212  00000+0  31020-3 0  9992
2 63167  88.9764 311.4701 0012950 245.6811 114.2988 13.50983758 58474
QIANFAN-82              
1 63168U 25046K   26063.14127690  .00000197  00000+0  28677-3 0  9997
2 63168  88.9764 311.5106 0011014 253.6024 106.3917 13.50999166 58463
QIANFAN-83              
1 63169U 25046L   26063.09889510  .00000278  00000+0  34546-3 0  9990
2 63169  88.9764 311.1315 0012407 231.4662 128.5383 13.62020174 58674
QIANFAN-84              
1 63170U 25046M   26063.16906316 -.00000082  00000+0 -14577-3 0  9991
2 63170  88.9761 311.6398 0014024 249.7219 110.2425 13.50961038 58390
QIANFAN-85              
1 63171U 25046N   26063.16594787  .00000215  00000+0  31476-3 0  9990
2 63171  88.9763 311.5119 0011432 252.2474 107.7429 13.51001939 58464
